NORAD_CAT_ID,OBJECT_NAME,OBJECT_TYPE,EPOCH,MEAN_MOTION,ECCENTRICITY,INCLINATION,RA_OF_ASC_NODE,ARG_OF_PERICENTER,MEAN_ANOMALY,BSTAR,MEAN_MOTION_DOT,MEAN_MOTION_DDOT,TLE_LINE0,TLE_LINE1,TLE_LINE2,SEMIMAJOR_AXIS,PERIOD,APOGEE,PERIGEE,DECAYED
52453.0,STARLINK-3872,PAYLOAD,2022-12-11 09:33:35,15.08850534,0.00029,53.2188,345.6167,36.2896,323.8293,0.00096975,0.00015184,0.0,0 STARLINK-3872,1 52453U 22049C   22345.39832668  .00015184  00000-0  96975-3 0  9995,2 52453  53.2188 345.6167 0002900  36.2896 323.8293 15.08850534 33325,6917.848000000001,95.437,541.719,537.707,0.0
52453.0,STARLINK-3872,PAYLOAD,2022-12-12 10:59:44,15.08854415,0.0002716,53.2187,340.8590000000001,35.6308,324.4865,0.00033379,5.03e-05,0.0,0 STARLINK-3872,1 52453U 22049C   22346.45815813  .00005030  00000-0  33379-3 0  9994,2 52453  53.2187 340.8590 0002716  35.6308 324.4865 15.08854415 33646,6917.8359999999975,95.437,541.58,537.822,0.0
52453.0,STARLINK-3872,PAYLOAD,2022-12-13 06:04:22,15.08847931,0.0002818,53.2192,337.2906,35.6887,324.4293,0.0002278,3.34e-05,0.0,0 STARLINK-3872,1 52453U 22049C   22347.25303632  .00003340  00000-0  22780-3 0  9990,2 52453  53.2192 337.2906 0002818  35.6887 324.4293 15.08847931 33761,6917.856,95.437,541.6709999999998,537.7719999999998,0.0
52453.0,STARLINK-3872,PAYLOAD,2022-12-13 09:15:08,15.08843049,0.0002764,53.2191,336.6967,34.3398,325.7773,1.7449000000000002e-05,-1.1e-07,0.0,0 STARLINK-3872,1 52453U 22049C   22347.38551743 -.00000011  00000-0  17449-4 0  9992,2 52453  53.2191 336.6967 0002764  34.3398 325.7773 15.08843049 33621,6917.871,95.437,541.648,537.8240000000002,0.0
52453.0,STARLINK-3872,PAYLOAD,2022-12-14 05:55:09,15.08844468,0.0002768,53.2192,332.8314,37.7127,322.4058,6.963e-05,8.2e-06,0.0,0 STARLINK-3872,1 52453U 22049C   22348.24663635  .00000820  00000-0  69630-4 0  9998,2 52453  53.2192 332.8314 0002768  37.7127 322.4058 15.08844468 33915,6917.8669999999975,95.437,541.6469999999998,537.817,0.0
52453.0,STARLINK-3872,PAYLOAD,2022-12-14 09:05:55,15.0884635,0.0002751,53.2192,332.2363,31.8047,328.3111,4.2162e-05,3.83e-06,0.0,0 STARLINK-3872,1 52453U 22049C   22348.37911495  .00000383  00000-0  42162-4 0  9997,2 52453  53.2192 332.2363 0002751  31.8047 328.3111 15.08846350 33772,6917.861,95.437,541.629,537.823,0.0
52453.0,STARLINK-3872,PAYLOAD,2022-12-15 07:21:19,15.08835574,0.0002673,53.2197,328.0732,33.2501,326.8659,-3.4823e-05,-8.43e-06,0.0,0 STARLINK-3872,1 52453U 22049C   22349.30647987 -.00000843  00000-0 -34823-4 0  9991,2 52453  53.2197 328.0732 0002673  33.2501 326.8659 15.08835574 34074,6917.894,95.438,541.6080000000002,537.91,0.0
52453.0,STARLINK-3872,PAYLOAD,2022-12-15 10:32:06,15.08839941,0.0002643,53.2202,327.4784,33.0465,327.0692,3.6307e-05,2.89e-06,0.0,0 STARLINK-3872,1 52453U 22049C   22349.43895885  .00000289  00000-0  36307-4 0  9998,2 52453  53.2202 327.4784 0002643  33.0465 327.0692 15.08839941 33931,6917.880999999999,95.438,541.5740000000002,537.9169999999998,0.0
52453.0,STARLINK-3872,PAYLOAD,2022-12-15 15:18:14,15.08851666,0.0002732,53.2203,326.5865,32.246,327.8699,2.7141e-05,1.44e-06,0.0,0 STARLINK-3872,1 52453U 22049C   22349.63767085  .00000144  00000-0  27141-4 0  9996,2 52453  53.2203 326.5865 0002732  32.2460 327.8699 15.08851666 33963,6917.845,95.437,541.6,537.82,0.0
52453.0,STARLINK-3872,PAYLOAD,2022-12-15 23:15:10,15.08854471,0.0002625,53.2202,325.0996,31.1904,328.9243,-2.4323e-06,-3.27e-06,0.0,0 STARLINK-3872,1 52453U 22049C   22349.96887138 -.00000327  00000-0 -24323-5 0  9999,2 52453  53.2202 325.0996 0002625  31.1904 328.9243 15.08854471 34171,6917.8359999999975,95.437,541.5169999999998,537.885,0.0
52453.0,STARLINK-3872,PAYLOAD,2022-12-16 08:47:29,15.088512,0.0002633,53.2193,323.3158,33.0966,327.019,0.00018755,2.699e-05,0.0,0 STARLINK-3872,1 52453U 22049C   22350.36630954  .00002699  00000-0  18755-3 0  9999,2 52453  53.2193 323.3158 0002633  33.0966 327.0190 15.08851200 34076,6917.846,95.437,541.533,537.89,0.0
52453.0,STARLINK-3872,PAYLOAD,2022-12-16 21:30:34,15.08844352,0.0002674,53.2187,320.9374,37.5935,322.5244,8.2215e-05,1.02e-05,0.0,0 STARLINK-3872,1 52453U 22049C   22350.89623134  .00001020  00000-0  82215-4 0  9999,2 52453  53.2187 320.9374 0002674  37.5935 322.5244 15.08844352 34319,6917.8669999999975,95.437,541.582,537.882,0.0
52453.0,STARLINK-3872,PAYLOAD,2022-12-17 02:16:44,15.08826241,0.0002728,53.2199,320.0451,36.2861,323.8315,-4.930600000000001e-05,-1.073e-05,0.0,0 STARLINK-3872,1 52453U 22049C   22351.09496158 -.00001073  00000-0 -49306-4 0  9990,2 52453  53.2199 320.0451 0002728  36.2861 323.8315 15.08826241 34346,6917.922,95.438,541.675,537.9,0.0
52453.0,STARLINK-3872,PAYLOAD,2022-12-17 10:13:41,15.08823239,0.0002535,53.22,318.5579,29.5154,330.5981,6.4025e-06,-1.87e-06,0.0,0 STARLINK-3872,1 52453U 22049C   22351.42617001 -.00000187  00000-0  64025-5 0  9999,2 52453  53.2200 318.5579 0002535  29.5154 330.5981 15.08823239 34234,6917.932,95.439,541.55,538.043,0.0
52453.0,STARLINK-3872,PAYLOAD,2022-12-17 14:59:51,15.08820319,0.0002519,53.22,317.6657,30.699,329.415,-8.4386e-05,-1.63e-05,0.0,0 STARLINK-3872,1 52453U 22049C   22351.62489623 -.00001630  00000-0 -84386-4 0  9994,2 52453  53.2200 317.6657 0002519  30.6990 329.4150 15.08820319 34268,6917.941,95.439,541.548,538.063,0.0
52453.0,STARLINK-3872,PAYLOAD,2022-12-18 10:04:27,15.0883631,0.0002548,53.2209,314.0964,30.1951,329.9188,1.7760999999999998e-05,-6e-08,0.0,0 STARLINK-3872,1 52453U 22049C   22352.41976844 -.00000006  00000-0  17761-4 0  9996,2 52453  53.2209 314.0964 0002548  30.1951 329.9188 15.08836310 34548,6917.892,95.438,541.519,537.994,0.0
52453.0,STARLINK-3872,PAYLOAD,2022-12-18 14:50:36,15.08845843,0.0002523,53.2204,313.205,31.0536,329.0605,2.5671e-05,1.2e-06,0.0,0 STARLINK-3872,1 52453U 22049C   22352.61848219  .00000120  00000-0  25671-4 0  9997,2 52453  53.2204 313.2050 0002523  31.0536 329.0605 15.08845843 34414,6917.863,95.437,541.4730000000002,537.982,0.0
52453.0,STARLINK-3872,PAYLOAD,2022-12-19 05:09:05,15.0883168,0.0002416,53.2202,310.5295,28.528,331.5844,0.00019695,2.847e-05,0.0,0 STARLINK-3872,1 52453U 22049C   22353.21465104  .00002847  00000-0  19695-3 0  9998,2 52453  53.2202 310.5295 0002416  28.5280 331.5844 15.08831680 34665,6917.906,95.438,541.442,538.099,0.0
52453.0,STARLINK-3872,PAYLOAD,2022-12-19 21:02:56,15.08844599,0.0002324,53.2203,307.5561,30.0833,330.0292,0.00030586,4.584e-05,0.0,0 STARLINK-3872,1 52453U 22049C   22353.87704079  .00004584  00000-0  30586-3 0  9999,2 52453  53.2203 307.5561 0002324  30.0833 330.0292 15.08844599 34606,6917.866,95.437,541.339,538.124,0.0
52453.0,STARLINK-3872,PAYLOAD,2022-12-20 06:35:14,15.08864006,0.0002392,53.2198,305.7731,30.6223,329.4908,0.00040191,6.118e-05,0.0,0 STARLINK-3872,1 52453U 22049C   22354.27447498  .00006118  00000-0  40191-3 0  9991,2 52453  53.2198 305.7731 0002392  30.6223 329.4908 15.08864006 34827,6917.807,95.436,541.327,538.0169999999998,0.0
52453.0,STARLINK-3872,PAYLOAD,2022-12-20 20:53:42,15.0885343,0.0002118,53.222,303.0955,31.3534,328.7584,9.4971e-05,1.224e-05,0.0,0 STARLINK-3872,1 52453U 22049C   22354.87063256  .00001224  00000-0  94971-4 0  9992,2 52453  53.2220 303.0955 0002118  31.3534 328.7584 15.08853430 34912,6917.839,95.437,541.17,538.239,0.0
52453.0,STARLINK-3872,PAYLOAD,2022-12-21 01:39:52,15.08839395,0.0002336,53.2194,302.2038,24.8105,335.2999,-4.2265e-05,-9.61e-06,0.0,0 STARLINK-3872,1 52453U 22049C   22355.06936045 -.00000961  00000-0 -42265-4 0  9997,2 52453  53.2194 302.2038 0002336  24.8105 335.2999 15.08839395 34948,6917.882,95.438,541.363,538.131,0.0
52453.0,STARLINK-3872,PAYLOAD,2022-12-21 03:15:15,15.08838134,0.0002626,53.2185,301.9073,17.9662,342.1423,-0.00014612,-2.613e-05,0.0,0 STARLINK-3872,1 52453U 22049C   22355.13560148 -.00002613  00000-0 -14612-3 0  9992,2 52453  53.2185 301.9073 0002626  17.9662 342.1423 15.08838134 34798,6917.886,95.438,541.568,537.934,0.0
52453.0,STARLINK-3872,PAYLOAD,2022-12-22 03:06:03,15.08830384,0.0002454,53.219,297.4477,27.8922,332.2201,-0.00018439,-3.221e-05,0.0,0 STARLINK-3872,1 52453U 22049C   22356.12920893 -.00003221  00000-0 -18439-3 0  9996,2 52453  53.2190 297.4477 0002454  27.8922 332.2201 15.08830384 35108,6917.91,95.438,541.472,538.077,0.0
52453.0,STARLINK-3872,PAYLOAD,2022-12-22 15:49:08,15.08842686,0.0002412,53.2197,295.0686,27.8354,332.2767,-4.2428e-05,-9.64e-06,0.0,0 STARLINK-3872,1 52453U 22049C   22356.65912480 -.00000964  00000-0 -42428-4 0  9994,2 52453  53.2197 295.0686 0002412  27.8354 332.2767 15.08842686 35187,6917.871999999999,95.437,541.406,538.069,0.0
52453.0,STARLINK-3872,PAYLOAD,2022-12-23 02:56:49,15.08864676,0.0002974,53.2196,292.9867,36.4941,323.6253,-0.00042311,-7.021e-05,0.0,0 STARLINK-3872,1 52453U 22049C   22357.12280076 -.00007021  00000-0 -42311-3 0  9997,2 52453  53.2196 292.9867 0002974  36.4941 323.6253 15.08864676 35259,6917.805,95.436,541.727,537.613,0.0
52453.0,STARLINK-3872,PAYLOAD,2022-12-23 12:29:10,15.0882364,0.000253,53.2196,291.2022,28.5653,331.5477,0.00013743,1.899e-05,0.0,0 STARLINK-3872,1 52453U 22049C   22357.52025930  .00001899  00000-0  13743-3 0  9999,2 52453  53.2196 291.2022 0002530  28.5653 331.5477 15.08823640 35313,6917.93,95.439,541.5459999999998,538.045,0.0
52453.0,STARLINK-3872,PAYLOAD,2022-12-24 02:47:38,15.08837681,0.0002508,53.2195,288.5263,29.8245,330.2889,0.00018775,2.701e-05,0.0,0 STARLINK-3872,1 52453U 22049C   22358.11641473  .00002701  00000-0  18775-3 0  9994,2 52453  53.2195 288.5263 0002508  29.8245 330.2889 15.08837681 35407,6917.887,95.438,541.487,538.0169999999998,0.0
52453.0,STARLINK-3872,PAYLOAD,2022-12-25 04:13:47,15.08849541,0.0002563999999999,53.2195,283.7689,30.0301,330.0837,0.00016877,2.399e-05,0.0,0 STARLINK-3872,1 52453U 22049C   22359.17624765  .00002399  00000-0  16877-3 0  9990,2 52453  53.2195 283.7689 0002564  30.0301 330.0837 15.08849541 35561,6917.851,95.437,541.49,537.942,0.0
